#dP2024  2 23 12  0  0.00000000      96 __u+U IGS20 EXT  IAC
## 2302 475200.00000000   900.00000000 60363 0.5000000000000
+  119   C06C07C08C09C10C11C12C13C14C16C19C20C21C22C23C24C25
+        C26C27C28C29C30C32C33C34C35C36C37C38C39C40C41C42C43
+        C44C45C46E02E03E04E05E07E08E09E10E11E12E13E14E15E18
+        E19E21E24E25E26E27E30E31E33E34E36G01G02G03G04G05G06
+        G07G08G09G10G11G12G13G14G15G16G17G18G19G20G21G22G23
+        G24G25G26G27G28G29G30G31G32J02J03J04R01R02R03R04R05
+        R07R08R09R11R12R13R14R15R16R17R18R19R20R21R22R24R26
++         8  9 10  9  8  9  8 11  9  9  9  8  9  8  8  8  8
++         8  9  8  8  8  9 10 10  9  9  9  9 11 10  7 10  8
++         9  8  8  7  7  8  8  8  8  9 11  9  8  7  7  7  8
++         8  8  7  7  7  8  8  7  7  7  7  8  9  8  7  8  8
++         7  9  7  7  8  7  9  8  8  8  8  8  8  7 10  8  8
++         7  7  8  8  8  8  7  8  8  9  7  0  8  8  8  9  8
++         7  9  8  8  8  9  8  9  8  9  8 10 10  7  7  8 10
%c M  cc GPS ccc cccc cccc cccc cccc ccccc ccccc ccccc ccccc
%c cc cc ccc ccc cccc cccc cccc cccc ccccc ccccc ccccc ccccc
%f  0.0000000  0.000000000  0.00000000000  0.000000000000000
%f  0.0000000  0.000000000  0.00000000000  0.000000000000000
%i    0    0    0    0      0      0      0      0         0
%i    0    0    0    0      0      0      0      0         0
/* IAC                                ULTRA-RAPID PREDICTION
/* S/V CLOCKS ARE ALIGNED TO GNSS TIME                      
/* G:C1WC2W R:C1PC2P E:C1XC5X C:C2IC6I J:C1CC2S             
/* PCV:IGS20_2290 OL/AL:FES2004  NONE     YN ORB:CoN CLK:CoN
*  2024 02 23 12  0  0.00000000
PC06  -7708.761411  23349.873534 -34213.363276    128.923636
PC07 -16650.328723  36710.144687  12074.058338   -847.801286
PC08  -1594.957901  37262.323459  19865.496301     16.076713
PC09   1379.988953  25518.242271 -32984.779333   -529.181083
PC10  -9607.574289  36680.527839  18183.555704     73.254840
PC11  21010.684473 -10036.095696 -15314.983127    425.419790
PC12  27797.419178   1236.477646   2127.672994    763.193506
PC13   3984.188331  40277.942892  12464.109199    419.768113
PC14  17103.119997 -20652.586134  -7819.942880    254.453768
PC16 -10717.805818  21632.838809 -34309.527185   -356.647006
PC19 -12407.506490  24944.024764  -1323.743223   -924.300900
PC20 -18937.598257  14428.081316  14547.212653   -190.788579
PC21  14569.790412   5842.692517 -23054.065686   -961.721236
PC22   1664.272136  21719.401293 -17424.824707    -99.238751
PC23 -10189.369505 -25183.855819   6363.216152   -779.377938
PC24  17418.094798  -1701.554107  21719.503715    910.834892
PC25   4222.049158 -19376.964136  19610.119032    333.116042
PC26  20046.052895  15766.353623  11346.905120   -253.276951
PC27 -25082.031813  -6662.582159 -10298.425864    275.236375
PC28 -11143.619859 -14502.549872 -21073.521171    209.531667
PC29 -12059.782111  14972.113924  20224.502788    245.623534
PC30 -26628.358736   5852.107229   6009.263654    -28.820360
PC32 -14573.864671  -5878.319557  23079.380213   -572.030000
PC33  12282.980891 -25037.673694   1275.146391   -951.136449
PC34  25992.890058  -6829.586567  -7478.649636    375.566702
PC35  11508.341168  14193.792444  21067.110836    426.935430
PC36  -5028.460340  18979.233504 -19821.425456     -4.819043
PC37 -19602.046043 -16506.383032 -11014.171461   -938.404085
PC38  -7264.904065  32911.808281  25467.404001    138.588901
PC39 -17152.504982  19572.716544 -33161.987594     -7.272039
PC40 -24382.097770  32463.921029  10819.552154    -57.772692
PC41  -1149.531435 -22222.968899  16906.915950   -894.958815
PC42  19032.290648 -13062.572375 -15655.315153   -451.924792
PC43  13005.546453 -14828.371683 -19741.589267     61.539723
PC44  25213.551311   5843.716285  10374.797104    393.134457
PC45  10290.593514  25199.429706  -6220.054074    -71.879230
PC46 -16888.987187   2638.552347 -22063.552221   -126.182471
PE02 -14653.663845  15730.776965 -20366.913542    105.742941
PE03 -25377.107384  15116.379420  -1832.999981    -95.738360
PE04  10641.809351 -20458.816605  18567.460041   -333.993349
PE05 -25071.206896   1033.852422  15707.128221   4722.756578
PE07   9704.567264  13983.970402 -24209.183801   -105.292234
PE08 -11394.050357  20388.238893 -18176.292073   -228.383130
PE09  -9504.068130 -13941.931547  24324.052376   -346.388111
PE10 -10071.993208 -20443.719515 -18892.079981   -604.155434
PE11 -19266.088653 -19904.765148 -10465.590611   3228.391723
PE12   -303.010424 -18034.036915 -23474.479257   -918.685139
PE13  18780.807031  19994.926296  11109.393418    -20.284010
PE14  23964.345694 -19897.626269  -8702.638051     47.537988
PE15   -269.653808  17724.401272  23712.244741    -87.426188
PE18 -17966.656465  14030.978289   6002.919235    359.339307
PE19  26216.907668 -13736.637543   -282.774653   -560.025604
PE21  16375.081293   5734.770062  23973.624925   -580.493886
PE24  -8395.143113 -25003.317451 -13433.514124   -614.111204
PE25 -16317.944074  -6176.398934 -23913.117915      1.260350
PE26  26556.590915  10056.112838  -8332.558113    377.089195
PE27   8637.563080  24769.345495  13719.365368   -281.911592
PE30  -4353.579946  28908.183286  -4716.360231    -26.473072
PE31   4093.642502 -28965.237228   4492.428620    -16.668576
PE33  19268.336949  -4663.101800 -21972.838625      8.022335
PE34 -18856.326743   5145.797465  22229.229135    -96.238281
PE36 -26551.512194 -10542.741252   7787.528240   -189.930174
PG01 -23492.229779 -12334.298400   3012.540348    170.752120
PG02 -21836.410413 -14384.639833  -4890.505140   -480.979745
PG03 -11863.394500 -15235.959044  18148.812298    211.170901
PG04 -17273.284201  -6141.197349  19281.477100    298.724730
PG05   6731.569534  24220.295021  -8597.968179   -162.881338
PG06  -8572.483441  11864.502037  22233.426333    395.723178
PG07 -23058.243781  -3164.488502 -12726.583468    -68.723972
PG08  -9936.362631 -11927.612190 -21671.266254      3.523128
PG09 -23828.907104   5747.691266  10219.097515    101.768136
PG10  10757.744710 -18119.390287 -15759.428849      1.168450
PG11   3598.254680  18178.051853  19070.406015   -585.330768
PG12  10854.204076  16510.882973  17493.962338   -480.771504
PG13   -606.164172  15924.437556 -21413.420888    628.133685
PG14 -13387.905675  14381.611724 -17759.623257    333.225987
PG15  11269.557157  11477.495815 -21636.689807    130.669666
PG16    -86.925051 -26071.776459  -3879.550882   -356.345700
PG17 -22916.245182  13338.531749   3026.580273    716.060220
PG18  22203.890765   2159.747707 -14538.536879   -561.756834
PG19 -17745.200895  15910.194160  11143.111704    444.650089
PG20    612.166834  26166.287114   5064.732929    386.427178
PG21 -18948.700947 -16472.994802  -9569.356708    133.886083
PG22 -10399.445385  21419.502154 -11639.083674     26.580386
PG23  14457.026555  -5438.783136 -21558.468346    162.321032
PG24  20188.443800  15951.385916  -7815.947498   -436.305514
PG25  15024.588604   5021.758283  21012.400703    489.435761
PG26   4497.330928 -24628.850192   8144.149436    187.139183
PG27   3322.394903 -17634.170838 -19714.285227     -6.482643
PG28  11183.670911 -10922.713767  21450.765731   -140.781502
PG29  23801.803039  -2317.085900  11613.738466   -606.380141
PG30 -16744.185135   6684.295189 -19455.777318   -428.816002
PG31   1825.082696 -16159.959459  20712.960388   -227.857773
PG32  20357.874979 -16044.703409   5465.857945   -613.074351
PJ02 -23231.635416  29902.575287 -13888.853994     -2.251092
PJ03 -28302.325629  22490.880455  26784.545977     -0.231968
PJ04 -28463.352930  31077.489087   6791.627243     50.839358
PR01  15340.841379  -4636.560155 -19843.257044     77.913282
PR02  17688.049584 -17372.598320  -5803.556513    -22.519236
PR03   9600.313534 -20637.262595  11506.896533     95.063531
PR04  -3144.299936 -12358.484575  22123.141524    224.657282
PR05 -14477.546180   2396.604789  20887.128355    127.356326
PR07  -9157.197228  20495.833928 -12116.524332     76.451425
PR08   3434.326851  12254.080280 -22047.846043    -74.519089
PR09  -7939.731299   9532.902874 -22263.073494    171.572460
PR11  10881.668800  22847.930703   3139.762159     33.405913
PR12  13730.471185   9331.623213  19389.924425     37.055917
PR13   8985.964932  -6998.002055  22802.857819    -44.637850
PR14  -2437.661171 -22121.591574  12485.454604     26.095810
PR15 -11276.501744 -22412.309668  -4605.161067     81.941627
PR16 -13694.458287  -9611.499078 -19264.930779     23.490493
PR17   2093.072121 -10386.069229 -23194.133416     63.562202
PR18 -15196.036650 -10609.492752 -17539.071133    128.824882
PR19 -24127.310948  -6925.541324  -4546.596651   -266.893088
PR20 -19947.314144   3047.354489  15645.022221   -108.723559
PR21  -1852.547035  10344.698756  23243.877060    -79.242940
PR22  15694.561411  11180.142957  16731.653778    109.499940
PR24  19434.858231  -4451.466984 -15896.723013    -45.081555
PR26   2800.768812  12919.534596 -21785.644213   -196.964045
EOF
